{"type":"Feature","properties":{"name":"Texas","iso3166-2":"US-TX","osmRelationId":114690,"simplificationTolerance":0.0035,"attribution":"© OpenStreetMap contributors"},"geometry":{"type":"MultiPolygon","coordinates":[[[[-102.843121,29.376167],[-102.83416,29.37877],[-102.82601,29.39667],[-102.81223,29.40117],[-102.826132,29.402358],[-102.83344,29.41045],[-102.82692,29.41794],[-102.83086,29.44451],[-102.8196,29.45078],[-102.82562,29.45794],[-102.81416,29.47151],[-102.81445,29.48259],[-102.80085,29.48628],[-102.8073,29.49433],[-102.80856,29.5229],[-102.79229,29.53286],[-102.791,29.5433],[-102.77128,29.54828],[-102.77782,29.56074],[-102.77364,29.57349],[-102.76618,29.57225],[-102.76219,29.57989],[-102.76841,29.59519],[-102.76023,29.59857],[-102.74631,29.59269],[-102.7402,29.59825],[-102.74207,29.63309],[-102.69366,29.67672],[-102.69955,29.68535],[-102.69878,29.69719],[-102.68907,29.70512],[-102.69115,29.72195],[-102.68183,29.72808],[-102.67515,29.74391],[-102.66875,29.74613],[-102.65991,29.73558],[-102.6306,29.73413],[-102.61263,29.74829],[-102.57369,29.75478],[-102.57448,29.76606],[-102.56866,29.77146],[-102.54818,29.74465],[-102.51345,29.76545],[-102.51049,29.77349],[-102.5183,29.7784],[-102.51758,29.78358],[-102.49889,29.78094],[-102.48702,29.78664],[-102.48072,29.77598],[-102.46539,29.78344],[-102.45818,29.77474],[-102.43384,29.77683],[-102.40913,29.76448],[-102.39563,29.76939],[-102.38706,29.76146],[-102.38489,29.771],[-102.39,29.78182],[-102.37722,29.78988],[-102.37749,29.79992],[-102.36289,29.83176],[-102.36445,29.84556],[-102.35214,29.85293],[-102.341,29.86943],[-102.33182,29.86284],[-102.3234,29.86404],[-102.31943,29.87945],[-102.30074,29.87774],[-102.28098,29.86289],[-102.2651,29.86768],[-102.2621,29.85347],[-102.25277,29.85341],[-102.24635,29.86418],[-102.2446,29.84866],[-102.23142,29.84814],[-102.22334,29.84052],[-102.20957,29.84433],[-102.19655,29.83632],[-102.18664,29.84852],[-102.17853,29.83979],[-102.1796,29.82589],[-102.16671,29.82559],[-102.14336,29.80322],[-102.12849,29.79842],[-102.11965,29.80248],[-102.1155,29.7923],[-102.08431,29.79513],[-102.0729,29.78645],[-102.04928,29.78553],[-102.03864,29.79177],[-102.04106,29.79946],[-102.03551,29.80422],[-102.01511,29.79751],[-101.99678,29.80616],[-101.98753,29.79675],[-101.98147,29.81519],[-101.97647,29.81591],[-101.9667,29.81266],[-101.95714,29.79565],[-101.94553,29.8017],[-101.93587,29.79979],[-101.92906,29.78266],[-101.91157,29.79812],[-101.87561,29.79387],[-101.85256,29.80789],[-101.82381,29.78738],[-101.81865,29.79148],[-101.82546,29.80777],[-101.81808,29.81175],[-101.80358,29.80355],[-101.814,29.7917],[-101.80476,29.78023],[-101.7884,29.77941],[-101.78518,29.7885],[-101.77557,29.78935],[-101.75424,29.77748],[-101.74204,29.77876],[-101.73427,29.77148],[-101.71972,29.77579],[-101.70992,29.76174],[-101.68956,29.77108],[-101.67683,29.76057],[-101.66168,29.77112],[-101.64504,29.75421],[-101.62659,29.77091],[-101.6043,29.774271],[-101.574702,29.769776],[-101.57459,29.78853],[-101.5689,29.79739],[-101.54454,29.81213],[-101.53523,29.79879],[-101.53972,29.76251],[-101.53621,29.75807],[-101.5203,29.76469],[-101.501725,29.764543],[-101.4802,29.78413],[-101.46187,29.78997],[-101.45288,29.78519],[-101.455988,29.771299],[-101.447542,29.749913],[-101.436272,29.751153],[-101.40994,29.77068],[-101.40112,29.7712],[-101.398617,29.760955],[-101.41505,29.75324],[-101.416121,29.746521],[-101.396567,29.735172],[-101.397007,29.712966],[-101.370906,29.698786],[-101.373553,29.677315],[-101.364493,29.666793],[-101.361214,29.649321],[-101.346056,29.662936],[-101.316526,29.660086],[-101.303835,29.65306],[-101.300429,29.637975],[-101.31256,29.60846],[-101.312208,29.586468],[-101.307424,29.580233],[-101.289445,29.572092],[-101.27747,29.590403],[-101.280274,29.619206],[-101.265825,29.631259],[-101.248643,29.623352],[-101.252826,29.601522],[-101.241314,29.565689],[-101.252931,29.557049],[-101.262323,29.535575],[-101.256805,29.522332],[-101.250395,29.519351],[-101.232901,29.52432],[-101.176844,29.515992],[-101.171692,29.501347],[-101.14853,29.47539],[-101.138573,29.473664],[-101.129204,29.479089],[-101.115246,29.46813],[-101.092875,29.471916],[-101.059875,29.458581],[-101.05717,29.44077],[-101.04337,29.42986],[-101.03714,29.40656],[-101.01914,29.39064],[-101.00989,29.36831],[-100.96414,29.34744],[-100.94995,29.34767],[-100.93958,29.33236],[-100.919398,29.32579],[-100.90121,29.31039],[-100.88629,29.30759],[-100.8778,29.28058],[-100.85513,29.27563],[-100.83462,29.26138],[-100.81379,29.2636],[-100.81667,29.25404],[-100.79732,29.24681],[-100.79597,29.22892],[-100.78476,29.22745],[-100.77366,29.21086],[-100.77643,29.20036],[-100.76682,29.19528],[-100.76614,29.18488],[-100.77596,29.17325],[-100.77264,29.16835],[-100.76388,29.16538],[-100.76071,29.15771],[-100.73805,29.1493],[-100.73878,29.14033],[-100.7258,29.12811],[-100.68489,29.11129],[-100.67459,29.10038],[-100.66376,29.07486],[-100.66241,29.04235],[-100.64564,28.98809],[-100.65155,28.9436],[-100.62951,28.92243],[-100.63128,28.91669],[-100.64091,28.91485],[-100.63244,28.90348],[-100.62228,28.91005],[-100.61363,28.90119],[-100.6007,28.90132],[-100.60288,28.88684],[-100.5893,28.88678],[-100.59846,28.87431],[-100.59031,28.87264],[-100.591,28.86321],[-100.57261,28.8482],[-100.57434,28.82819],[-100.54767,28.82645],[-100.54582,28.81272],[-100.53522,28.80522],[-100.53242,28.79079],[-100.53791,28.78031],[-100.52963,28.76947],[-100.5337,28.75928],[-100.52064,28.75721],[-100.51467,28.75178],[-100.51467,28.74228],[-100.50754,28.740713],[-100.5067,28.71713],[-100.51214,28.70662],[-100.500474,28.661954],[-100.47936,28.65546],[-100.46194,28.64109],[-100.44646,28.64185],[-100.44731,28.60938],[-100.4337,28.60642],[-100.43024,28.5965],[-100.3987,28.58531],[-100.39742,28.57485],[-100.41109,28.55007],[-100.38853,28.51528],[-100.33389,28.49929],[-100.34383,28.48649],[-100.36836,28.47636],[-100.33744,28.44251],[-100.33605,28.42998],[-100.34956,28.4032],[-100.34449,28.39014],[-100.28637,28.3119],[-100.29199,28.2763],[-100.25366,28.23719],[-100.22095,28.23291],[-100.20856,28.19092],[-100.18569,28.18571],[-100.16057,28.16824],[-100.14149,28.16823],[-100.08444,28.14484],[-100.07476,28.12389],[-100.05607,28.10355],[-100.05274,28.08453],[-100.01787,28.06498],[-100.00719,28.02007],[-99.99044,27.99351],[-99.96167,27.98347],[-99.93138,27.98062],[-99.9375,27.9415],[-99.92688,27.9362],[-99.91786,27.91828],[-99.90017,27.91228],[-99.89336,27.89907],[-99.90423,27.87383],[-99.90125,27.86415],[-99.87729,27.84265],[-99.87626,27.79756],[-99.85088,27.79411],[-99.84273,27.7682],[-99.83587,27.76315],[-99.82253,27.76741],[-99.81889,27.77632],[-99.81334,27.77445],[-99.79796,27.73746],[-99.78825,27.73066],[-99.77072,27.73218],[-99.7105,27.65769],[-99.69916,27.65574],[-99.69031,27.66899],[-99.68659,27.66153],[-99.6671,27.65922],[-99.65808,27.64863],[-99.6661,27.63596],[-99.63912,27.6267],[-99.62398,27.63235],[-99.6245,27.64408],[-99.6162,27.63757],[-99.59602,27.63969],[-99.59188,27.62788],[-99.57729,27.61851],[-99.58354,27.60306],[-99.56134,27.60726],[-99.5548,27.6144],[-99.5406,27.60485],[-99.52851,27.57865],[-99.5137,27.56953],[-99.5281,27.49816],[-99.49321,27.497553],[-99.48234,27.49023],[-99.47872,27.47938],[-99.49543,27.4457],[-99.48764,27.41019],[-99.49206,27.38117],[-99.50737,27.35186],[-99.50423,27.33922],[-99.53807,27.31685],[-99.52755,27.30473],[-99.50151,27.30619],[-99.49157,27.30042],[-99.48771,27.28886],[-99.49658,27.27192],[-99.49141,27.26323],[-99.48086,27.25998],[-99.46164,27.26831],[-99.44166,27.25023],[-99.44527,27.22321],[-99.43262,27.2092],[-99.4262,27.17566],[-99.43021,27.15885],[-99.44013,27.1515],[-99.43106,27.13709],[-99.43091,27.1251],[-99.44256,27.10681],[-99.42865,27.09192],[-99.4528,27.06414],[-99.4447,27.04091],[-99.44583,27.0216],[-99.43134,27.01035],[-99.40938,27.01089],[-99.40329,26.99661],[-99.38555,26.9806],[-99.384095,26.969494],[-99.39471,26.95964],[-99.38449,26.93768],[-99.32478,26.91602],[-99.32247,26.902235],[-99.32879,26.87995],[-99.31644,26.86448],[-99.29527,26.86549],[-99.28032,26.85796],[-99.268052,26.842176],[-99.26226,26.81574],[-99.24246,26.78804],[-99.24005,26.74575],[-99.20879,26.7248],[-99.20992,26.69397],[-99.20022,26.65592],[-99.17806,26.62049],[-99.167314,26.560045],[-99.17104,26.54168],[-99.16597,26.53592],[-99.12805,26.52552],[-99.10438,26.49926],[-99.09169,26.47548],[-99.10291,26.44181],[-99.11368,26.43289],[-99.08453,26.397977],[-99.06213,26.39738],[-99.03708,26.41351],[-99.020274,26.406032],[-99.01125,26.39233],[-98.98796,26.39164],[-98.97387,26.40117],[-98.95419,26.39395],[-98.95607,26.37719],[-98.94361,26.36938],[-98.9353,26.37256],[-98.9356,26.38498],[-98.92628,26.39436],[-98.92237,26.37884],[-98.90101,26.37044],[-98.89653,26.35316],[-98.86064,26.36625],[-98.84378,26.35835],[-98.82495,26.37072],[-98.80554,26.36808],[-98.78821,26.33778],[-98.7891,26.33068],[-98.77106,26.3249],[-98.75032,26.33091],[-98.74646,26.31761],[-98.73599,26.30852],[-98.74112,26.30272],[-98.75475,26.30798],[-98.75056,26.29568],[-98.72849,26.29912],[-98.71715,26.28634],[-98.70291,26.28728],[-98.70103,26.27792],[-98.71733,26.27806],[-98.71988,26.27273],[-98.68099,26.26283],[-98.67874,26.2449],[-98.6701,26.23671],[-98.6346,26.24236],[-98.62292,26.25995],[-98.6163,26.24652],[-98.59997,26.25757],[-98.58314,26.25681],[-98.57926,26.25112],[-98.58512,26.2446],[-98.57999,26.23524],[-98.5659,26.24152],[-98.56147,26.22414],[-98.54584,26.23709],[-98.55821,26.24437],[-98.55625,26.24812],[-98.54376,26.24382],[-98.53488,26.22544],[-98.5224,26.23578],[-98.52457,26.2214],[-98.51374,26.22731],[-98.50104,26.22257],[-98.50701,26.20922],[-98.48504,26.21263],[-98.48183,26.2009],[-98.47765,26.20325],[-98.48131,26.21989],[-98.45986,26.22633],[-98.45454,26.21678],[-98.44458,26.22444],[-98.43875,26.21303],[-98.44382,26.20043],[-98.41712,26.18406],[-98.40236,26.1812],[-98.40194,26.17113],[-98.38652,26.15773],[-98.365058,26.158416],[-98.36736,26.1684],[-98.35972,26.17256],[-98.35809,26.15833],[-98.35149,26.15128],[-98.34669,26.16559],[-98.33591,26.16616],[-98.33799,26.14946],[-98.32685,26.14291],[-98.33537,26.13795],[-98.32131,26.11838],[-98.30977,26.11403],[-98.30576,26.10318],[-98.2977,26.10332],[-98.30361,26.11002],[-98.29666,26.12026],[-98.27451,26.11583],[-98.2664,26.12091],[-98.27045,26.10656],[-98.28821,26.10446],[-98.26733,26.09228],[-98.24939,26.07219],[-98.22081,26.07648],[-98.19492,26.05339],[-98.18731,26.06428],[-98.17705,26.06074],[-98.18064,26.06659],[-98.17684,26.07527],[-98.16769,26.06289],[-98.15799,26.06342],[-98.16176,26.0539],[-98.15175,26.05832],[-98.14652,26.04908],[-98.13213,26.0742],[-98.12951,26.062785],[-98.10477,26.06764],[-98.09293,26.05861],[-98.08134,26.06446],[-98.08582,26.06971],[-98.08042,26.07118],[-98.07006,26.05052],[-98.08019,26.04177],[-98.07655,26.03634],[-98.06185,26.04633],[-98.03884,26.04129],[-98.02766,26.06705],[-98.02075,26.05867],[-98.01178,26.06592],[-98.01202,26.05614],[-98.00346,26.06475],[-97.99189,26.05826],[-97.98798,26.06586],[-97.98003,26.06731],[-97.97879,26.05888],[-97.96548,26.05173],[-97.95125,26.0622],[-97.93326,26.05304],[-97.93726,26.0626],[-97.93354,26.06565],[-97.92691,26.05485],[-97.89098,26.06042],[-97.88715,26.0667],[-97.86898,26.05689],[-97.86161,26.07016],[-97.86075,26.05292],[-97.83912,26.05321],[-97.83456,26.04585],[-97.81879,26.05667],[-97.8122,26.04439],[-97.81121,26.05545],[-97.80111,26.06025],[-97.79878,26.05288],[-97.78872,26.04921],[-97.79523,26.04729],[-97.79735,26.03954],[-97.77745,26.02916],[-97.76923,26.03583],[-97.77652,26.04476],[-97.76768,26.04732],[-97.76143,26.02566],[-97.75267,26.03152],[-97.74819,26.02627],[-97.73498,26.03216],[-97.7194,26.03091],[-97.71974,26.02341],[-97.70939,26.02641],[-97.70726,26.03785],[-97.69152,26.0189],[-97.69345,26.03236],[-97.67507,26.02605],[-97.67527,26.03248],[-97.66766,26.02879],[-97.6626,26.03815],[-97.66038,26.03202],[-97.66799,26.01927],[-97.65159,26.01587],[-97.64627,26.02745],[-97.63903,26.02319],[-97.6381,26.01341],[-97.64924,26.01053],[-97.63505,26],[-97.6268,26.00606],[-97.62744,25.99666],[-97.61865,26.00272],[-97.62003,25.99266],[-97.63112,25.99649],[-97.63455,25.99034],[-97.62075,25.98873],[-97.61743,25.97987],[-97.60781,25.97674],[-97.61056,25.96598],[-97.60194,25.95719],[-97.58215,25.96244],[-97.57803,25.94213],[-97.57285,25.94647],[-97.57454,25.95398],[-97.5679,25.95244],[-97.5663,25.94495],[-97.5821,25.93873],[-97.58297,25.93302],[-97.56716,25.93382],[-97.56798,25.92762],[-97.56159,25.9257],[-97.55212,25.93714],[-97.54598,25.93382],[-97.54374,25.92343],[-97.53718,25.93072],[-97.543048,25.91996],[-97.5301,25.91993],[-97.53328,25.90821],[-97.52374,25.89894],[-97.52105,25.88614],[-97.51044,25.88769],[-97.49815,25.89911],[-97.49667,25.87968],[-97.48763,25.88542],[-97.48494,25.87856],[-97.46879,25.88885],[-97.47475,25.87941],[-97.47027,25.87535],[-97.45537,25.88397],[-97.4566,25.86833],[-97.44879,25.87227],[-97.44461,25.86745],[-97.45385,25.85389],[-97.44524,25.85638],[-97.444,25.8485],[-97.43601,25.84991],[-97.42441,25.84042],[-97.4125,25.84122],[-97.41411,25.85626],[-97.40959,25.86227],[-97.40801,25.84528],[-97.398676,25.850485],[-97.40625,25.8379],[-97.39423,25.83706],[-97.38685,25.84387],[-97.37311,25.83983],[-97.37128,25.84932],[-97.3639,25.85039],[-97.37603,25.85597],[-97.36154,25.86947],[-97.35661,25.86733],[-97.35935,25.87979],[-97.37414,25.88013],[-97.35641,25.88805],[-97.36656,25.89082],[-97.36594,25.90245],[-97.37492,25.90827],[-97.3545,25.91985],[-97.34792,25.93134],[-97.33685,25.92967],[-97.33808,25.92057],[-97.33322,25.92619],[-97.326024,25.917571],[-97.31801,25.93134],[-97.3049,25.92801],[-97.30302,25.9373],[-97.27666,25.93523],[-97.27823,25.94729],[-97.28966,25.95431],[-97.284,25.95943],[-97.27701,25.95226],[-97.24721,25.94817],[-97.23918,25.95562],[-97.20882,25.96398],[-97.20458,25.95795],[-97.18784,25.95398],[-97.17537,25.96593],[-97.158205,25.961707],[-97.15713,25.94902],[-97.147441,25.956321],[-96.979291,25.970871],[-96.987258,26.078989],[-97.031946,26.340361],[-97.081037,26.515419],[-97.171062,26.775824],[-97.195511,26.875546],[-97.210889,27.004859],[-97.207984,27.108903],[-97.199368,27.177639],[-97.174657,27.276051],[-97.115307,27.424347],[-97.043733,27.564202],[-97.006451,27.624903],[-96.899574,27.764778],[-96.874084,27.811175],[-96.832819,27.858545],[-96.747754,27.942022],[-96.641916,28.028225],[-96.495259,28.12399],[-96.320315,28.205282],[-96.27076,28.24781],[-96.241562,28.292234],[-96.132231,28.362048],[-96.002733,28.422232],[-95.737372,28.529654],[-95.380638,28.711706],[-95.198231,28.811816],[-95.133095,28.87093],[-95.004975,28.957377],[-94.969171,28.99734],[-94.698609,29.159319],[-94.646734,29.197147],[-94.613316,29.238699],[-94.592077,29.294787],[-94.577095,29.304783],[-94.40888,29.377801],[-94.006408,29.527068],[-93.982153,29.531627],[-93.856639,29.523126],[-93.795065,29.535452],[-93.836698,29.687764],[-93.870413,29.735739],[-93.891241,29.74559],[-93.890947,29.764136],[-93.925225,29.787939],[-93.928067,29.805363],[-93.922399,29.822447],[-93.905904,29.83844],[-93.839437,29.882721],[-93.81807,29.918114],[-93.802938,29.975439],[-93.741135,30.022811],[-93.736253,30.039385],[-93.720381,30.053892],[-93.718515,30.065881],[-93.712982,30.064442],[-93.710441,30.055233],[-93.700002,30.0581],[-93.701998,30.066499],[-93.716207,30.070027],[-93.733986,30.08703],[-93.730613,30.089874],[-93.72412,30.082717],[-93.723231,30.095668],[-93.702729,30.112598],[-93.707802,30.120814],[-93.700593,30.123637],[-93.701409,30.137448],[-93.692868,30.135217],[-93.688427,30.141122],[-93.693427,30.141846],[-93.697581,30.152926],[-93.709502,30.146814],[-93.700019,30.174815],[-93.710989,30.179861],[-93.708923,30.18635],[-93.717683,30.19346],[-93.714102,30.208566],[-93.721131,30.209423],[-93.718776,30.219454],[-93.711056,30.222061],[-93.711024,30.235264],[-93.704423,30.233816],[-93.709447,30.238526],[-93.703101,30.238508],[-93.710573,30.245506],[-93.706258,30.245777],[-93.709549,30.248871],[-93.702626,30.260535],[-93.708847,30.265375],[-93.704864,30.290978],[-93.712598,30.287426],[-93.715011,30.295808],[-93.742726,30.301195],[-93.740678,30.307154],[-93.748679,30.312264],[-93.755338,30.33139],[-93.76609,30.332702],[-93.75845,30.338811],[-93.766336,30.343798],[-93.759679,30.341587],[-93.763044,30.345673],[-93.757461,30.350187],[-93.76279,30.353338],[-93.750872,30.359571],[-93.759745,30.369463],[-93.755281,30.365536],[-93.758387,30.390031],[-93.722256,30.419856],[-93.725562,30.43138],[-93.718556,30.422393],[-93.712689,30.433383],[-93.702507,30.42973],[-93.697293,30.442398],[-93.707723,30.444924],[-93.702595,30.449339],[-93.707403,30.456545],[-93.699019,30.458238],[-93.711512,30.468594],[-93.717182,30.48364],[-93.709519,30.483139],[-93.716796,30.495976],[-93.70862,30.498926],[-93.714885,30.500789],[-93.705033,30.51163],[-93.728932,30.526093],[-93.732107,30.536394],[-93.74,30.539972],[-93.72843,30.545302],[-93.731314,30.55317],[-93.723594,30.560367],[-93.728104,30.573913],[-93.722188,30.580586],[-93.715497,30.578449],[-93.713667,30.588478],[-93.693557,30.594544],[-93.687654,30.591567],[-93.692271,30.585673],[-93.686281,30.585552],[-93.685613,30.592662],[-93.67878,30.59371],[-93.682984,30.6086],[-93.688963,30.610894],[-93.681255,30.620159],[-93.685449,30.629037],[-93.679852,30.633959],[-93.68269,30.642242],[-93.654759,30.670848],[-93.649278,30.667234],[-93.647022,30.672804],[-93.630865,30.678059],[-93.620826,30.692382],[-93.624526,30.699148],[-93.616432,30.711614],[-93.618045,30.728729],[-93.608632,30.73054],[-93.619142,30.741203],[-93.608781,30.745273],[-93.612597,30.754235],[-93.591551,30.764426],[-93.592183,30.77622],[-93.582649,30.777939],[-93.588743,30.784249],[-93.581349,30.790135],[-93.584678,30.801473],[-93.56295,30.806075],[-93.563819,30.818593],[-93.555337,30.821956],[-93.552594,30.835221],[-93.568837,30.843461],[-93.557394,30.852184],[-93.562201,30.858983],[-93.558585,30.866951],[-93.574651,30.8848],[-93.568113,30.893847],[-93.549226,30.896652],[-93.558874,30.913106],[-93.547467,30.926476],[-93.542265,30.926602],[-93.543475,30.920121],[-93.532129,30.924342],[-93.525979,30.937654],[-93.532402,30.947835],[-93.531372,30.958157],[-93.546056,30.95752],[-93.548126,30.966055],[-93.558632,30.97121],[-93.573365,30.970728],[-93.563732,30.989018],[-93.577827,30.999716],[-93.566973,31.013332],[-93.555592,31.003719],[-93.54868,31.010742],[-93.540402,31.007836],[-93.534026,31.018905],[-93.52145,31.020511],[-93.507866,31.031927],[-93.524564,31.037723],[-93.518928,31.043087],[-93.532272,31.054544],[-93.521589,31.056816],[-93.519326,31.064443],[-93.527121,31.067625],[-93.527374,31.07385],[-93.552235,31.078641],[-93.548524,31.090033],[-93.557908,31.09549],[-93.539272,31.114659],[-93.538044,31.12697],[-93.548866,31.150469],[-93.548272,31.155747],[-93.536441,31.158404],[-93.543221,31.17061],[-93.532741,31.17453],[-93.532545,31.183541],[-93.550345,31.186617],[-93.578676,31.167632],[-93.589255,31.166065],[-93.600576,31.176871],[-93.601863,31.199486],[-93.607228,31.204864],[-93.603569,31.216499],[-93.595362,31.220206],[-93.596416,31.229738],[-93.618021,31.232601],[-93.616422,31.244545],[-93.621637,31.249232],[-93.614309,31.251882],[-93.614073,31.25966],[-93.620607,31.271105],[-93.642526,31.26961],[-93.648491,31.283851],[-93.659209,31.281861],[-93.669058,31.298126],[-93.687109,31.305024],[-93.683081,31.318842],[-93.673956,31.323809],[-93.677437,31.330271],[-93.668919,31.339013],[-93.668726,31.352647],[-93.645522,31.359126],[-93.639157,31.372069],[-93.671053,31.36618],[-93.674374,31.397747],[-93.704807,31.410526],[-93.691911,31.438806],[-93.709549,31.441644],[-93.703948,31.455529],[-93.723389,31.453781],[-93.749857,31.469347],[-93.745405,31.480154],[-93.752453,31.482496],[-93.728378,31.488452],[-93.721976,31.493239],[-93.723046,31.501361],[-93.717252,31.501699],[-93.719087,31.507444],[-93.710976,31.511816],[-93.742476,31.515456],[-93.747572,31.530611],[-93.759556,31.524017],[-93.787322,31.527318],[-93.802643,31.539161],[-93.799424,31.543358],[-93.818346,31.554616],[-93.821021,31.560007],[-93.816483,31.563535],[-93.82247,31.567375],[-93.818286,31.571049],[-93.834749,31.586119],[-93.838917,31.605248],[-93.827766,31.616907],[-93.819015,31.614952],[-93.82684,31.620711],[-93.816226,31.622471],[-93.82085,31.628309],[-93.815914,31.632639],[-93.81821,31.647445],[-93.811455,31.647532],[-93.826462,31.666919],[-93.821774,31.673857],[-93.81242,31.670111],[-93.816339,31.675275],[-93.804499,31.683904],[-93.794454,31.703669],[-93.816793,31.707774],[-93.812392,31.715269],[-93.815196,31.729445],[-93.836749,31.748838],[-93.826536,31.759615],[-93.829708,31.76486],[-93.822706,31.774047],[-93.837322,31.780182],[-93.839511,31.800218],[-93.851118,31.799864],[-93.860901,31.811648],[-93.873661,31.815324],[-93.877295,31.832674],[-93.873426,31.836519],[-93.88263,31.844039],[-93.879023,31.845197],[-93.884966,31.849402],[-93.883368,31.855105],[-93.889896,31.85653],[-93.882537,31.868633],[-93.886472,31.865474],[-93.894273,31.872065],[-93.892159,31.875775],[-93.901849,31.87441],[-93.896282,31.886817],[-93.900463,31.896571],[-93.90543,31.89022],[-93.914736,31.892856],[-93.924086,31.886634],[-93.924679,31.894255],[-93.932696,31.892812],[-93.921869,31.903731],[-93.927971,31.912205],[-93.953387,31.910538],[-93.96064,31.923606],[-93.974029,31.922222],[-94.00691,31.97339],[-94.016244,31.980051],[-94.017847,31.992346],[-94.042261,31.993621],[-94.043317,33.552175],[-94.063312,33.567074],[-94.069552,33.582762],[-94.09361,33.570793],[-94.127084,33.57208],[-94.143993,33.559063],[-94.154979,33.557633],[-94.157983,33.56264],[-94.151936,33.583298],[-94.164287,33.592688],[-94.181178,33.582679],[-94.214803,33.584519],[-94.212572,33.565214],[-94.226133,33.553985],[-94.25317,33.558849],[-94.253685,33.563784],[-94.234201,33.578298],[-94.235751,33.590042],[-94.242698,33.591454],[-94.262182,33.581301],[-94.271022,33.560136],[-94.278318,33.556131],[-94.288704,33.554843],[-94.291965,33.560995],[-94.271105,33.577959],[-94.2966,33.581158],[-94.304496,33.578512],[-94.303123,33.55935],[-94.310934,33.549765],[-94.329988,33.55234],[-94.330932,33.571651],[-94.335825,33.57444],[-94.348613,33.568504],[-94.363462,33.550194],[-94.395391,33.550266],[-94.397709,33.556204],[-94.368699,33.577516],[-94.367669,33.584953],[-94.383633,33.587026],[-94.392989,33.570222],[-94.408352,33.569221],[-94.42097,33.578088],[-94.422515,33.59339],[-94.44304,33.591888],[-94.45719,33.637062],[-94.474614,33.640064],[-94.497788,33.635847],[-94.520705,33.644637],[-94.551283,33.636489],[-94.549084,33.623455],[-94.560217,33.619275],[-94.573067,33.631058],[-94.562656,33.641307],[-94.542667,33.642896],[-94.540767,33.655144],[-94.548903,33.662123],[-94.567805,33.660273],[-94.578071,33.680582],[-94.592422,33.663662],[-94.602695,33.661487],[-94.608058,33.66575],[-94.60553,33.681288],[-94.618135,33.687888],[-94.641186,33.661741],[-94.645048,33.664573],[-94.643785,33.68529],[-94.657133,33.693806],[-94.702131,33.685085],[-94.719583,33.693716],[-94.731384,33.711518],[-94.729703,33.729267],[-94.736144,33.737766],[-94.75335,33.737006],[-94.769492,33.718945],[-94.78218,33.726421],[-94.781583,33.745155],[-94.793926,33.75393],[-94.831669,33.741687],[-94.857802,33.741656],[-94.865012,33.749249],[-94.867219,33.767803],[-94.901192,33.771801],[-94.906342,33.793773],[-94.902394,33.805755],[-94.9066,33.810391],[-94.914839,33.81253],[-94.927199,33.802403],[-94.923766,33.816666],[-94.956725,33.822728],[-94.94694,33.841693],[-94.95621,33.85823],[-94.976895,33.850461],[-94.986508,33.867923],[-94.996808,33.868422],[-95.01612,33.85823],[-95.038264,33.869206],[-95.049375,33.868304],[-95.054336,33.871568],[-95.054236,33.893446],[-95.066484,33.900145],[-95.071574,33.916767],[-95.077746,33.918722],[-95.091233,33.905851],[-95.102518,33.90604],[-95.125168,33.93619],[-95.144822,33.93449],[-95.21971,33.963225],[-95.226701,33.962251],[-95.25121,33.938235],[-95.248635,33.911884],[-95.257046,33.891296],[-95.263587,33.888684],[-95.266316,33.909818],[-95.285199,33.908393],[-95.277895,33.878441],[-95.289383,33.87333],[-95.304607,33.873883],[-95.31584,33.887448],[-95.325797,33.890868],[-95.338156,33.876475],[-95.355692,33.873774],[-95.360987,33.867567],[-95.380042,33.871059],[-95.398753,33.862934],[-95.422871,33.872555],[-95.438235,33.865286],[-95.462836,33.888731],[-95.479498,33.878443],[-95.504067,33.876261],[-95.503788,33.894145],[-95.508788,33.898634],[-95.533249,33.881605],[-95.543549,33.880608],[-95.551274,33.890227],[-95.548184,33.907111],[-95.554484,33.928158],[-95.579341,33.932823],[-95.592988,33.943575],[-95.59788,33.93325],[-95.620711,33.921855],[-95.630324,33.905615],[-95.662167,33.910103],[-95.683882,33.892222],[-95.702422,33.885596],[-95.714524,33.886308],[-95.729544,33.895855],[-95.751431,33.895499],[-95.763231,33.878719],[-95.751987,33.861616],[-95.755506,33.851993],[-95.767694,33.847039],[-95.800481,33.862221],[-95.819707,33.859477],[-95.818648,33.841197],[-95.830276,33.835527],[-95.925837,33.885987],[-95.935364,33.881605],[-95.943089,33.8624],[-96.013642,33.84351],[-96.018362,33.846255],[-96.015616,33.861901],[-96.022396,33.865286],[-96.030207,33.862756],[-96.032052,33.84679],[-96.03879,33.840374],[-96.0669,33.838449],[-96.092305,33.85766],[-96.096125,33.853134],[-96.088057,33.841443],[-96.090203,33.83656],[-96.107884,33.838912],[-96.118784,33.827612],[-96.139512,33.824047],[-96.165691,33.809072],[-96.170111,33.771266],[-96.187749,33.756959],[-96.227446,33.750679],[-96.261263,33.767056],[-96.292119,33.770802],[-96.310058,33.741722],[-96.307268,33.728054],[-96.312682,33.706718],[-96.34744,33.686667],[-96.359751,33.695928],[-96.361097,33.711035],[-96.409577,33.753641],[-96.42242,33.776494],[-96.465536,33.782288],[-96.501546,33.774476],[-96.512863,33.784806],[-96.516481,33.806148],[-96.528788,33.82267],[-96.57306,33.819284],[-96.628504,33.844892],[-96.626673,33.855117],[-96.58945,33.881227],[-96.585283,33.888727],[-96.589172,33.895116],[-96.627784,33.894283],[-96.658341,33.915949],[-96.668063,33.916226],[-96.681397,33.89456],[-96.685841,33.859005],[-96.698342,33.839839],[-96.714731,33.83095],[-96.761955,33.824562],[-96.770844,33.830117],[-96.781956,33.861783],[-96.795845,33.869005],[-96.832235,33.87456],[-96.839735,33.868171],[-96.842235,33.851783],[-96.850013,33.847061],[-96.872236,33.857616],[-96.883069,33.868449],[-96.89557,33.89706],[-96.902793,33.94317],[-96.91696,33.958169],[-96.972795,33.935392],[-96.979462,33.941503],[-96.980851,33.956225],[-96.993351,33.949836],[-96.995851,33.942892],[-96.983829,33.89525],[-96.996188,33.873054],[-97.018376,33.85014],[-97.040649,33.838092],[-97.062621,33.860048],[-97.088628,33.852956],[-97.090216,33.841871],[-97.054253,33.834314],[-97.048159,33.820054],[-97.078886,33.813137],[-97.094078,33.804008],[-97.096267,33.791383],[-97.085581,33.762953],[-97.087169,33.743364],[-97.107768,33.721486],[-97.134333,33.718702],[-97.164633,33.730409],[-97.172186,33.745113],[-97.189095,33.757245],[-97.187722,33.780362],[-97.203025,33.795085],[-97.202056,33.823298],[-97.17459,33.831212],[-97.165234,33.84875],[-97.175831,33.869976],[-97.174311,33.891278],[-97.205381,33.915588],[-97.220627,33.912738],[-97.233491,33.916834],[-97.248962,33.907271],[-97.246478,33.877548],[-97.261343,33.862364],[-97.287264,33.860618],[-97.293776,33.87912],[-97.308636,33.887555],[-97.304902,33.868716],[-97.318463,33.863389],[-97.334106,33.87121],[-97.339385,33.857197],[-97.352249,33.848826],[-97.352935,33.83475],[-97.360842,33.825794],[-97.37862,33.830072],[-97.393093,33.821364],[-97.420623,33.818583],[-97.450192,33.827505],[-97.459891,33.837843],[-97.45045,33.874622],[-97.45723,33.902124],[-97.500575,33.919932],[-97.529367,33.912401],[-97.543105,33.900267],[-97.564232,33.898111],[-97.578772,33.906432],[-97.591173,33.902561],[-97.587426,33.914546],[-97.599859,33.927258],[-97.588665,33.943842],[-97.589748,33.952727],[-97.603822,33.960031],[-97.610762,33.971087],[-97.625004,33.974414],[-97.636937,33.988495],[-97.666288,33.992534],[-97.694058,33.983606],[-97.70914,33.955636],[-97.728494,33.939092],[-97.759874,33.935666],[-97.760218,33.926209],[-97.773439,33.925591],[-97.781756,33.915669],[-97.794547,33.911742],[-97.797735,33.894611],[-97.808445,33.878838],[-97.846892,33.854984],[-97.871419,33.850596],[-97.934822,33.878762],[-97.966629,33.882279],[-97.984974,33.90063],[-97.979031,33.911415],[-97.963914,33.912327],[-97.954558,33.922651],[-97.95441,33.932253],[-97.9746,33.941426],[-97.956857,33.959802],[-97.948424,33.987714],[-97.967771,33.988405],[-97.982308,34.003045],[-98.039359,33.993269],[-98.088724,34.005615],[-98.107766,34.036174],[-98.090033,34.04585],[-98.108447,34.05565],[-98.120766,34.075053],[-98.118943,34.093709],[-98.103709,34.112192],[-98.104025,34.148593],[-98.114935,34.155131],[-98.131493,34.148161],[-98.154354,34.122734],[-98.171057,34.114208],[-98.202653,34.117028],[-98.23932,34.13328],[-98.260169,34.128897],[-98.289526,34.132434],[-98.334178,34.151854],[-98.370585,34.155223],[-98.382944,34.138012],[-98.381195,34.129845],[-98.400471,34.123421],[-98.398483,34.102921],[-98.40137,34.098652],[-98.411283,34.10023],[-98.414426,34.085074],[-98.440092,34.084311],[-98.449034,34.073462],[-98.465241,34.073861],[-98.471459,34.065712],[-98.483969,34.062127],[-98.504372,34.072311],[-98.538675,34.108465],[-98.556138,34.116059],[-98.568354,34.1346],[-98.597669,34.152272],[-98.613916,34.148905],[-98.642092,34.163142],[-98.653663,34.162486],[-98.663164,34.146916],[-98.6991,34.127156],[-98.743927,34.117837],[-98.763274,34.122352],[-98.77965,34.133799],[-98.825875,34.144732],[-98.844495,34.14326],[-98.850379,34.150038],[-98.871369,34.147997],[-98.881476,34.15549],[-98.896025,34.147398],[-98.901351,34.155416],[-98.895017,34.161157],[-98.900619,34.171763],[-98.914238,34.171448],[-98.958321,34.209589],[-98.973053,34.203269],[-98.988946,34.21955],[-98.999441,34.218074],[-99.013163,34.203186],[-99.02198,34.206357],[-99.022302,34.200191],[-99.030326,34.19574],[-99.063137,34.201839],[-99.082018,34.212758],[-99.123881,34.201952],[-99.136878,34.217513],[-99.161428,34.208313],[-99.17475,34.211696],[-99.179008,34.226036],[-99.189083,34.216275],[-99.196527,34.245824],[-99.193126,34.258837],[-99.207841,34.260466],[-99.195297,34.271888],[-99.195999,34.2786],[-99.210511,34.288762],[-99.20816,34.294795],[-99.192695,34.296422],[-99.194034,34.301901],[-99.203921,34.30454],[-99.194859,34.323816],[-99.208007,34.324474],[-99.217228,34.341538],[-99.212516,34.347523],[-99.23221,34.34654],[-99.237172,34.365927],[-99.24816,34.365113],[-99.246773,34.373758],[-99.258283,34.37245],[-99.275168,34.384932],[-99.261671,34.392583],[-99.264294,34.401303],[-99.281486,34.401404],[-99.296387,34.413658],[-99.320657,34.407579],[-99.321078,34.416492],[-99.355839,34.440935],[-99.361367,34.45565],[-99.377573,34.458249],[-99.394228,34.441559],[-99.390725,34.422099],[-99.396471,34.419144],[-99.397326,34.408816],[-99.384984,34.406466],[-99.393615,34.400241],[-99.397274,34.377374],[-99.403194,34.372815],[-99.425956,34.38158],[-99.429122,34.371101],[-99.435469,34.36956],[-99.453097,34.38782],[-99.460549,34.380176],[-99.465717,34.394151],[-99.486972,34.397489],[-99.504165,34.410633],[-99.572598,34.417215],[-99.580272,34.415316],[-99.586931,34.386045],[-99.609406,34.369184],[-99.69611,34.377829],[-99.712813,34.388397],[-99.720009,34.405349],[-99.759304,34.424067],[-99.801221,34.457529],[-99.834159,34.501244],[-99.853066,34.511593],[-99.886922,34.549206],[-99.923826,34.575489],[-99.954567,34.578195],[-99.971555,34.562179],[-100.000393,34.560558],[-100.000407,36.499943],[-103.041654,36.500453],[-103.043617,34.003633],[-103.064625,32.999899],[-103.064631,32.000391],[-106.618625,32.000714],[-106.639738,31.981324],[-106.630137,31.972275],[-106.61947,31.972115],[-106.625237,31.954557],[-106.614891,31.956393],[-106.614398,31.952059],[-106.623607,31.945339],[-106.622201,31.936032],[-106.629836,31.926627],[-106.612909,31.920378],[-106.640419,31.905125],[-106.645846,31.895274],[-106.629418,31.883494],[-106.63575,31.866294],[-106.614676,31.84646],[-106.601711,31.844333],[-106.602521,31.824427],[-106.590925,31.823891],[-106.576755,31.810309],[-106.566679,31.813349],[-106.546801,31.807357],[-106.527319,31.790359],[-106.528571,31.781501],[-106.513803,31.770798],[-106.510244,31.761414],[-106.490322,31.74878],[-106.473065,31.750534],[-106.466991,31.759589],[-106.45188,31.7645],[-106.38004,31.73114],[-106.3723,31.71245],[-106.3496,31.69674],[-106.33432,31.66316],[-106.30438,31.62385],[-106.28091,31.56233],[-106.2465,31.54174],[-106.2373,31.51377],[-106.22428,31.50023],[-106.21952,31.48114],[-106.20668,31.46626],[-106.17532,31.45541],[-106.15758,31.43778],[-106.13234,31.42491],[-106.10752,31.42226],[-106.08058,31.39864],[-106.00527,31.39264],[-105.96997,31.36587],[-105.95396,31.36489],[-105.94576,31.35306],[-105.94798,31.33974],[-105.93819,31.31831],[-105.93141,31.31276],[-105.90774,31.31249],[-105.89395,31.29063],[-105.86894,31.28864],[-105.79432,31.20236],[-105.78318,31.19803],[-105.77304,31.1668],[-105.74235,31.16485],[-105.71066,31.13703],[-105.64878,31.11587],[-105.64151,31.09811],[-105.62685,31.09834],[-105.60442,31.0837],[-105.595769,31.064887],[-105.585098,31.057316],[-105.58133,31.026738],[-105.569014,31.015809],[-105.570111,31.008298],[-105.55719,30.98968],[-105.53262,30.98468],[-105.51578,30.96491],[-105.50208,30.96781],[-105.49395,30.95632],[-105.49886,30.95033],[-105.47094,30.93377],[-105.46692,30.92437],[-105.45161,30.92481],[-105.45321,30.91618],[-105.44687,30.91957],[-105.44144,30.90858],[-105.41373,30.89951],[-105.412186,30.888581],[-105.40004,30.88931],[-105.40425,30.87955],[-105.39134,30.87382],[-105.399856,30.852008],[-105.361634,30.85059],[-105.35231,30.83596],[-105.33913,30.84035],[-105.32744,30.82736],[-105.31861,30.82829],[-105.31667,30.81085],[-105.3095,30.81704],[-105.30628,30.80978],[-105.30006,30.82484],[-105.29187,30.8262],[-105.27588,30.80708],[-105.266761,30.808388],[-105.257553,30.794102],[-105.23814,30.80365],[-105.227662,30.799124],[-105.215008,30.805926],[-105.209535,30.79734],[-105.219968,30.788909],[-105.21641,30.7834],[-105.2089,30.782671],[-105.195,30.792238],[-105.17652,30.7679],[-105.16704,30.77665],[-105.15627,30.76983],[-105.16146,30.75216],[-105.14347,30.75513],[-105.12731,30.74788],[-105.11843,30.74992],[-105.12056,30.74399],[-105.10988,30.74018],[-105.11191,30.73328],[-105.10332,30.7292],[-105.10548,30.72363],[-105.08748,30.71547],[-105.08739,30.70986],[-105.08012,30.70774],[-105.08089,30.69989],[-105.06845,30.70386],[-105.06256,30.69858],[-105.06175,30.68587],[-105.05667,30.68784],[-105.0553,30.68226],[-105.04604,30.6799],[-105.04726,30.68795],[-105.04091,30.68901],[-105.02723,30.67891],[-105.00659,30.68609],[-105.00149,30.67269],[-104.98607,30.6628],[-104.98389,30.63486],[-104.97174,30.61017],[-104.95912,30.61045],[-104.93116,30.59903],[-104.92263,30.60366],[-104.91878,30.58555],[-104.90957,30.58518],[-104.89887,30.57053],[-104.89839,30.55399],[-104.88299,30.53043],[-104.88586,30.52449],[-104.881,30.52097],[-104.8857,30.51828],[-104.87208,30.51136],[-104.87397,30.49532],[-104.866563,30.494298],[-104.871787,30.480252],[-104.86589,30.46694],[-104.86812,30.44145],[-104.8583,30.43746],[-104.86132,30.42611],[-104.84778,30.41977],[-104.84778,30.4137],[-104.85718,30.40888],[-104.85425,30.40076],[-104.85948,30.39031],[-104.83745,30.37373],[-104.81661,30.37544],[-104.81967,30.36856],[-104.81091,30.36292],[-104.81419,30.35374],[-104.82263,30.35076],[-104.81161,30.33284],[-104.79133,30.32548],[-104.77689,30.31041],[-104.77936,30.30333],[-104.76662,30.30592],[-104.76032,30.29609],[-104.76316,30.27482],[-104.74863,30.27437],[-104.75044,30.26188],[-104.7368,30.25576],[-104.73375,30.26151],[-104.70629,30.23491],[-104.71127,30.22306],[-104.68712,30.179265],[-104.69019,30.14938],[-104.68533,30.14477],[-104.69671,30.13433],[-104.69505,30.11777],[-104.68552,30.11031],[-104.69435,30.10196],[-104.69206,30.09602],[-104.68496,30.09838],[-104.68997,30.08955],[-104.68584,30.08211],[-104.69088,30.07781],[-104.68665,30.07629],[-104.70365,30.06435],[-104.70738,30.0499],[-104.6957,30.03768],[-104.70093,30.03572],[-104.70368,30.02293],[-104.68968,30.01508],[-104.69314,29.99301],[-104.68584,29.98699],[-104.69316,29.97549],[-104.68008,29.97688],[-104.68557,29.97066],[-104.68535,29.95673],[-104.67324,29.95493],[-104.68088,29.94736],[-104.67838,29.93871],[-104.68257,29.93949],[-104.67997,29.92078],[-104.67492,29.91095],[-104.66565,29.90899],[-104.66529,29.9014],[-104.65519,29.90563],[-104.65837,29.8909],[-104.65174,29.89239],[-104.64622,29.87862],[-104.63335,29.87064],[-104.6294,29.85239],[-104.62156,29.8495],[-104.62472,29.84271],[-104.61569,29.84657],[-104.61065,29.84229],[-104.61049,29.83623],[-104.61983,29.83045],[-104.60859,29.82798],[-104.61005,29.8192],[-104.60104,29.81598],[-104.59496,29.80533],[-104.59108,29.80959],[-104.58606,29.80186],[-104.59092,29.79804],[-104.58151,29.79503],[-104.57894,29.78277],[-104.5659,29.77136],[-104.56848,29.76593],[-104.5639,29.76124],[-104.57004,29.75279],[-104.55143,29.74136],[-104.56057,29.73532],[-104.54932,29.73051],[-104.5523,29.71725],[-104.54485,29.71598],[-104.54588,29.69942],[-104.53024,29.69038],[-104.5442,29.68152],[-104.53584,29.67433],[-104.53633,29.66732],[-104.52538,29.66787],[-104.51772,29.64755],[-104.50985,29.64411],[-104.51597,29.64101],[-104.50828,29.63249],[-104.49805,29.63966],[-104.48619,29.62867],[-104.47617,29.62811],[-104.47328,29.61783],[-104.46541,29.61828],[-104.46662,29.60926],[-104.45634,29.60873],[-104.39852,29.57167],[-104.39396,29.55444],[-104.38035,29.54212],[-104.37015,29.54299],[-104.33541,29.51923],[-104.32146,29.52195],[-104.32092,29.52969],[-104.31499,29.53267],[-104.31158,29.52326],[-104.29629,29.52399],[-104.26241,29.51363],[-104.2603,29.5066],[-104.23676,29.49737],[-104.23078,29.47875],[-104.21264,29.48389],[-104.20895,29.48062],[-104.21759,29.45625],[-104.18113,29.42671],[-104.18398,29.4168],[-104.169417,29.40784],[-104.171163,29.403081],[-104.164415,29.4008],[-104.16847,29.39622],[-104.16116,29.3901],[-104.15546,29.39471],[-104.14945,29.3855],[-104.14333,29.38824],[-104.14097,29.37769],[-104.137263,29.384167],[-104.122918,29.379882],[-104.12141,29.37142],[-104.10664,29.37339],[-104.08207,29.34589],[-104.056432,29.337834],[-104.05525,29.3305],[-104.03771,29.3198],[-103.97533,29.2962],[-103.96793,29.30015],[-103.92581,29.29443],[-103.91776,29.28446],[-103.897951,29.286163],[-103.88918,29.27879],[-103.880519,29.285264],[-103.86326,29.27915],[-103.854953,29.281557],[-103.83776,29.27829],[-103.8261,29.26918],[-103.81368,29.27409],[-103.799536,29.258369],[-103.78393,29.265453],[-103.77514,29.24782],[-103.78107,29.24346],[-103.781918,29.226715],[-103.76966,29.22057],[-103.76005,29.23373],[-103.7542,29.22689],[-103.75683,29.22036],[-103.74232,29.22183],[-103.74264,29.20889],[-103.71849,29.18081],[-103.70487,29.18499],[-103.69823,29.17739],[-103.65994,29.17099],[-103.65048,29.15668],[-103.610817,29.165538],[-103.59275,29.15022],[-103.55364,29.158],[-103.54977,29.14308],[-103.53995,29.1463],[-103.52441,29.13719],[-103.523954,29.12116],[-103.499956,29.115203],[-103.49985,29.10837],[-103.49353,29.10795],[-103.47006,29.08539],[-103.47264,29.06793],[-103.4497,29.07267],[-103.44961,29.06498],[-103.42886,29.04943],[-103.43258,29.04345],[-103.40487,29.03953],[-103.40107,29.03104],[-103.39086,29.03484],[-103.38715,29.02188],[-103.37554,29.02384],[-103.360734,29.018228],[-103.35334,29.02298],[-103.34424,29.04601],[-103.33043,29.04312],[-103.3272,29.03285],[-103.34192,29.02842],[-103.33897,29.02065],[-103.32629,29.01629],[-103.31431,29.02608],[-103.30756,29.02449],[-103.31607,29.01038],[-103.30927,29.00356],[-103.30064,29.00771],[-103.28638,29.00067],[-103.28155,28.98823],[-103.28838,28.98124],[-103.28628,28.97692],[-103.27939,28.97646],[-103.26672,28.99608],[-103.25047,28.98042],[-103.237012,28.981969],[-103.22775,28.99178],[-103.220459,28.983391],[-103.21436,28.98787],[-103.181262,28.983515],[-103.15393,28.97153],[-103.13454,28.98375],[-103.11573,28.98485],[-103.11723,29.00037],[-103.0979,29.02666],[-103.10657,29.03839],[-103.10056,29.06069],[-103.0923,29.06453],[-103.09152,29.055399],[-103.08583,29.05398],[-103.08742,29.06731],[-103.07686,29.07584],[-103.08018,29.08719],[-103.07581,29.09156],[-103.0642,29.0914],[-103.05438,29.10086],[-103.04496,29.09532],[-103.033514,29.101332],[-103.03728,29.11416],[-103.01228,29.12586],[-103.01562,29.13422],[-102.9961,29.16038],[-102.99575,29.17927],[-102.97563,29.18632],[-102.95069,29.1736],[-102.944826,29.190903],[-102.937993,29.188461],[-102.93227,29.19472],[-102.91767,29.19099],[-102.913202,29.218796],[-102.89533,29.2085],[-102.86766,29.22344],[-102.87139,29.24152],[-102.90302,29.25434],[-102.90635,29.26157],[-102.89926,29.26904],[-102.90305,29.27944],[-102.88807,29.29276],[-102.89308,29.30816],[-102.88751,29.31147],[-102.88004,29.33838],[-102.88394,29.34829],[-102.87706,29.35482],[-102.86128,29.351294],[-102.83943,29.35894],[-102.84545,29.36541],[-102.843121,29.376167]]]]}}
